# Made by eph2tle, compiled Jan  5 2024 10:09:35
# Run at Mon Jan  8 09:18:38 2024
#
# No updates
#
#    The following TLEs (Two-Line Elements) were generated by fitting
# a numerically-integrated ephemeris,  based on the orbit given below,
# to the SDP4/SGP4 models.  Each TLE is good for the interval between
# its epoch and the epoch of the subsequent TLE (usually one day).
# The maximum deviation between the numerically integrated ephemerides
# and the TLE-based ephemeris, in kilometers,  is given for each TLE
# as the "worst residual".
#
#    This fitting is done using the 'eph2tle' code packaged with Find_Orb.
# The code has details on how the TLEs were computed :
#
#    https://github.com/Bill-Gray/find_orb/eph2tle.cpp
#
#    Be warned:  the error given is that between the numerically
# integrated ephems and the TLE model.  There will usually be at
# least some additional difference between the ephems and the actual
# motion of the satellite,  especially if the ephemerides are based
# on a short arc.  If the following orbital elements say something
# like "[based on] 10 observations 2015 Jan. 1-13",  and the TLEs
# are for 2015 May,  the extrapolation may be tenuous at best.  If
# your application requires a specific level of accuracy,  you may
# want to contact me;  I can give you some idea as to the fit of the
# underlying data (and possibly TLEs based on newer data).
#
#   You can usually find the underlying observational data,  and the
# fitted orbit,  residuals,  ephemerides,  and sometimes some comments
# about the object,  among the pages listed at
#
#    https://www.projectpluto.com/pluto/mpecs/pseudo.htm
#
#    Also,  if you use a TLE outside the "correct" time range (between
# its MJD and that of the next TLE),  all bets are off.  I've carefully
# computed and minimized the worst error over the "correct" time frame,
# but the ephemeris may (or may not) diverge wildly outside of it.
#
# Ephem range: 60317.500000 60331.500000 1.000000
# Created from Horizons data by 'jpl2mpc', ver Jan  8 2024, at Mon Jan  8 14:18:34 2024 UTC
#   Note : I fitted JPL data to the first (Jan 8.5-9.5) TLE.  After that,
# it's TLEs from observations.  Those will need to be updated;  the object
# is still "wiggling around" a bit as fuel leaks.  A fit with A1, A2, A3
# (basically assuming that the object is pushed by a steady amount in a
# steady direction as the fuel leaks) fits fairly well.  Based on Astrobotic's
# press releases,  I'm guesstimating that the fuel will run out sometime
# around Jan 13 00:00 UTC.  These elements assume the non-gravs cut out at
# that point.
#
#  SPACECRAFT TRAJECTORY: Pre-launch reference trajectory   (for the JPL TLE)
#
# Elements for after 2024 Jan 9.5 :
#
# Orbital elements:  Peregrine Lander
#    Perigee 2024 Jan 8.35693 +/- 0.000867 TT =  8:33:58 (JD 2460317.85693)
# A1: (-126.83 +/- 2.43)e-7   A2: (-90.52 +/- 7.88)e-8
# A3: (-325.67 +/- 2.37)e-8 AU/day^2 [1/r^2]
# Epoch 2024 Jan  9.0 TT = JDT 2460318.5                           Find_Orb
# M  20.75420380 +/- 0.059            (J2000 equator)
# n  32.27363408 +/- 0.0522           Peri.  254.29096 +/- 0.015
# a210881.391 +/- 227                 Node    28.48754 +/- 0.010
# e   0.9674097 +/- 5.01e-5           Incl.   29.72604 +/- 0.0027
# P  11.1544d                H 30.20  G  0.15   U 10.8
# q 6872.66966 +/- 6.35    Q 414890.113 +/- 456
# 61 of 110 observations 2024 Jan. 9-12; mean residual 1".911
#
# 1 NoradU COSPAR   Epoch.epoch     dn/dt/2  d2n/dt2/6 BSTAR    T El# C
# 2 NoradU Inclina RAAscNode Eccent  ArgPeri MeanAno  MeanMotion Rev# C

# Worst residual: 332.06 km
# MJD 60317.500000 (2024 Jan  8 12:00)
Peregrine = 2024-000A = NORAD 99999
1 58751U 24006A   24008.99919926  .00000000  00000-0  00000-0 0 21990
2 58751 029.6210 026.0142 9500069 256.5056 021.7231 00.08862738    09

# Worst residual: 158.26 km
# MJD 60318.500000 (2024 Jan  9 12:00)
Peregrine Lander
1 58751U 24006A   24009.99919926  .00000000  00000-0  00000-0 0 22037
2 58751 029.0623 024.1138 9520832 257.7266 053.9379 00.08950097    07

# Worst residual: 126.78 km
# MJD 60319.500000 (2024 Jan 10 12:00)
Peregrine Lander
1 58751U 24006A   24010.99919926  .00000000  00000-0  00000-0 0 22039
2 58751 028.7966 022.8814 9541371 258.1953 091.5227 00.09409898    07

# Worst residual: 110.45 km
# MJD 60320.500000 (2024 Jan 11 12:00)
Peregrine Lander
1 58751U 24006A   24011.99919926  .00000000  00000-0  00000-0 0 22030
2 58751 028.5427 021.1921 9572267 259.1809 130.2473 00.09650245    05

# Worst residual: 91.88 km
# MJD 60321.500000 (2024 Jan 12 12:00)
Peregrine Lander
1 58751U 24006A   24012.99919926  .00000000  00000-0  00000-0 0 22031
2 58751 028.3600 019.4749 9614183 260.3415 169.2774 00.09762515    05

# Worst residual: 16.55 km
# MJD 60322.500000 (2024 Jan 13 12:00)
Peregrine Lander
1 58751U 24006A   24013.99919926  .00000000  00000-0  00000-0 0 22032
2 58751 028.2915 018.5475 9644982 261.0840 206.3409 00.09784620    08

# Worst residual: 18.43 km
# MJD 60323.500000 (2024 Jan 14 12:00)
Peregrine Lander
1 58751U 24006A   24014.99919926  .00000000  00000-0  00000-0 0 22033
2 58751 028.2995 018.6308 9652535 261.0969 240.9381 00.09799803    09

# Worst residual: 22.51 km
# MJD 60324.500000 (2024 Jan 15 12:00)
Peregrine Lander
1 58751U 24006A   24015.99919926  .00000000  00000-0  00000-0 0 22034
2 58751 028.3004 018.5894 9648303 261.1658 275.3871 00.09829739    02

# Worst residual: 33.56 km
# MJD 60325.500000 (2024 Jan 16 12:00)
Peregrine Lander
1 58751U 24006A   24016.99919926  .00000000  00000-0  00000-0 0 22035
2 58751 028.3012 018.3849 9635140 261.2294 310.1405 00.09865362    04

# Worst residual: 21.88 km
# MJD 60326.500000 (2024 Jan 17 12:00)
Peregrine Lander
1 58751U 24006A   24017.99919926  .00000000  00000-0  00000-0 0 22036
2 58751 028.3102 018.1625 9625221 261.2162 345.4596 00.09843117    03

# Worst residual: 41.76 km
# MJD 60327.500000 (2024 Jan 18 12:00)
Peregrine Lander
1 58751U 24006A   24018.99919926  .00000000  00000-0  00000-0 0 22037
2 58751 028.3139 017.9322 9631473 260.9768 020.4477 00.09654176    01

# Worst residual: 22.72 km
# MJD 60328.500000 (2024 Jan 19 12:00)
Peregrine Lander
1 58751U 24006A   24019.99919926  .00000000  00000-0  00000-0 0 22038
2 58751 028.3389 018.0097 9641667 260.7085 055.0441 00.09665598    00

# Worst residual: 53.24 km
# MJD 60329.500000 (2024 Jan 20 12:00)
Peregrine Lander
1 58751U 24006A   24020.99919926  .00000000  00000-0  00000-0 0 22030
2 58751 028.4086 018.4194 9658679 260.1250 090.1616 00.09719691    04

# Worst residual: 197.22 km
# MJD 60330.500000 (2024 Jan 21 12:00)
Peregrine Lander
1 58751U 24006A   24021.99919926  .00000000  00000-0  00000-0 0 22031
2 58751 028.6741 020.3480 9719511 257.9415 125.9881 00.09802917    09
Avg worst resid: 70.40 km
Worst residual in entire run: 197.22 km on MJD 60330.5
       1     3     10    30    100   300   1K    3K    10K   km
     0     0     0     5     4     4     0     0     0     0
